ICEYE-X71               
1 68494U 26067CG  26117.81408838  .00003016  00000+0  30741-3 0  9996
2 68494  97.7574  76.8478 0002349 149.8187 210.3168 14.91425331  4219
GRAVITAS                
1 68495U 26067CH  26110.92537546  .00000320  00000+0  44402-4 0  9996
2 68495  97.7600  70.0281 0001637 178.9108 181.2110 14.84194594  3187
ICEYE-X73               
1 68496U 26067CJ  26117.87081118  .00002765  00000+0  27846-3 0  9994
2 68496  97.7571  76.9263 0003292 100.7183 259.4407 14.91971830  4222
ICEYE-X75               
1 68497U 26067CK  26117.87121191  .00002933  00000+0  29515-3 0  9993
2 68497  97.7553  76.9203 0002991  97.8330 262.3229 14.91954814  4220
TRANSPORTER-16 OBJECT CL
1 68498U 26067CL  26117.81710184  .00003436  00000+0  35066-3 0  9991
2 68498  97.7510  76.8249 0001542 188.3451 171.7742 14.91277089  4218
TRANSPORTER-16 OBJECT CM
1 68499U 26067CM  26117.88101066  .00001719  00000+0  17770-3 0  9996
2 68499  97.7552  76.9054 0001496 139.5059 220.6271 14.91413792  4225
ICEYE-X74               
1 68500U 26067CN  26117.81329753  .00002732  00000+0  27893-3 0  9990
2 68500  97.7579  76.8507 0002457 144.6786 215.4596 14.91425564  4212
TRANSPORTER-16 OBJECT CP
1 68501U 26067CP  26117.81727479  .00002515  00000+0  25825-3 0  9990
2 68501  97.7592  76.8486 0003237 165.6486 194.4825 14.91269712  4213
ICEYE-X76               
1 68502U 26067CQ  26117.81197723  .00002032  00000+0  20838-3 0  9997
2 68502  97.7585  76.8544 0002562 137.8383 222.3033 14.91534888  4219
FLYLAB2                 
1 68503U 26067CR  26117.82738840  .00002849  00000+0  29694-3 0  9995
2 68503  97.7533  76.8186 0004026 213.7225 146.3738 14.90560652  4215
ICEYE-X72               
1 68504U 26067CS  26117.80711573  .00002862  00000+0  28928-3 0  9992
2 68504  97.7586  76.8610 0003004 117.5066 242.6458 14.91796777  4214
GEMS2-AMETHYST          
1 68505U 26067CT  26117.82829692  .00006326  00000+0  64943-3 0  9993
2 68505  97.7570  76.8278 0004666 193.2673 166.8423 14.90731952  4210
STARLINK-37262          
1 68508U 26068A   26117.59968231  .00313041  00000+0  15242-2 0  9996
2 68508  53.1558 264.2101 0001229  72.5075 287.6082 15.80993998  4404
STARLINK-36292          
1 68509U 26068B   26117.53605152 -.00801665  00000+0 -48585-2 0  9993
2 68509  53.1567 264.5234 0001194  94.3103 265.8055 15.78962514  4393
STARLINK-37260          
1 68510U 26068C   26114.75330697  .00107841  00000+0  54237-3 0  9990
2 68510  53.1560 278.4587 0001419  39.3761 320.7365 15.80902599  3958
STARLINK-37280          
1 68511U 26068D   26116.71154495  .04348943  19878-1  20319-1 0  9990
2 68511  53.1556 268.6272 0027696 256.9348 102.8584 15.85572065  4262
STARLINK-37286          
1 68512U 26068E   26117.00002315 -.00000656  00000+0  21170-6 0  9996
2 68512  53.1567 267.1820 0000679  34.7337 167.7559 15.80848460  5577
