[{"OBJECT_NAME":"ICEYE-X71","OBJECT_ID":"2026-067CG","EPOCH":"2026-04-27T19:32:17.236032","MEAN_MOTION":14.91425331,"ECCENTRICITY":0.0002349,"INCLINATION":97.7574,"RA_OF_ASC_NODE":76.8478,"ARG_OF_PERICENTER":149.8187,"MEAN_ANOMALY":210.3168,"EPHEMERIS_TYPE":0,"CLASSIFICATION_TYPE":"U","NORAD_CAT_ID":68494,"ELEMENT_SET_NO":999,"REV_AT_EPOCH":421,"BSTAR":0.00030741,"MEAN_MOTION_DOT":3.016e-5,"MEAN_MOTION_DDOT":0},{"OBJECT_NAME":"GRAVITAS","OBJECT_ID":"2026-067CH","EPOCH":"2026-04-20T22:12:32.439744","MEAN_MOTION":14.84194594,"ECCENTRICITY":0.00016376,"INCLINATION":97.76,"RA_OF_ASC_NODE":70.0281,"ARG_OF_PERICENTER":178.9108,"MEAN_ANOMALY":181.211,"EPHEMERIS_TYPE":0,"CLASSIFICATION_TYPE":"U","NORAD_CAT_ID":68495,"ELEMENT_SET_NO":999,"REV_AT_EPOCH":318,"BSTAR":4.4401613e-5,"MEAN_MOTION_DOT":3.2e-6,"MEAN_MOTION_DDOT":0},{"OBJECT_NAME":"ICEYE-X73","OBJECT_ID":"2026-067CJ","EPOCH":"2026-04-27T20:53:58.085952","MEAN_MOTION":14.9197183,"ECCENTRICITY":0.0003292,"INCLINATION":97.7571,"RA_OF_ASC_NODE":76.9263,"ARG_OF_PERICENTER":100.7183,"MEAN_ANOMALY":259.4407,"EPHEMERIS_TYPE":0,"CLASSIFICATION_TYPE":"U","NORAD_CAT_ID":68496,"ELEMENT_SET_NO":999,"REV_AT_EPOCH":422,"BSTAR":0.00027846,"MEAN_MOTION_DOT":2.765e-5,"MEAN_MOTION_DDOT":0},{"OBJECT_NAME":"ICEYE-X75","OBJECT_ID":"2026-067CK","EPOCH":"2026-04-27T20:54:32.709024","MEAN_MOTION":14.91954814,"ECCENTRICITY":0.0002991,"INCLINATION":97.7553,"RA_OF_ASC_NODE":76.9203,"ARG_OF_PERICENTER":97.833,"MEAN_ANOMALY":262.3229,"EPHEMERIS_TYPE":0,"CLASSIFICATION_TYPE":"U","NORAD_CAT_ID":68497,"ELEMENT_SET_NO":999,"REV_AT_EPOCH":422,"BSTAR":0.00029515,"MEAN_MOTION_DOT":2.933e-5,"MEAN_MOTION_DDOT":0},{"OBJECT_NAME":"TRANSPORTER-16 OBJECT CL","OBJECT_ID":"2026-067CL","EPOCH":"2026-04-27T19:36:37.598976","MEAN_MOTION":14.91277089,"ECCENTRICITY":0.0001542,"INCLINATION":97.751,"RA_OF_ASC_NODE":76.8249,"ARG_OF_PERICENTER":188.3451,"MEAN_ANOMALY":171.7742,"EPHEMERIS_TYPE":0,"CLASSIFICATION_TYPE":"U","NORAD_CAT_ID":68498,"ELEMENT_SET_NO":999,"REV_AT_EPOCH":421,"BSTAR":0.00035066,"MEAN_MOTION_DOT":3.436e-5,"MEAN_MOTION_DDOT":0},{"OBJECT_NAME":"TRANSPORTER-16 OBJECT CM","OBJECT_ID":"2026-067CM","EPOCH":"2026-04-27T21:08:39.321024","MEAN_MOTION":14.91413792,"ECCENTRICITY":0.0001496,"INCLINATION":97.7552,"RA_OF_ASC_NODE":76.9054,"ARG_OF_PERICENTER":139.5059,"MEAN_ANOMALY":220.6271,"EPHEMERIS_TYPE":0,"CLASSIFICATION_TYPE":"U","NORAD_CAT_ID":68499,"ELEMENT_SET_NO":999,"REV_AT_EPOCH":422,"BSTAR":0.0001777,"MEAN_MOTION_DOT":1.719e-5,"MEAN_MOTION_DDOT":0},{"OBJECT_NAME":"ICEYE-X74","OBJECT_ID":"2026-067CN","EPOCH":"2026-04-27T19:31:08.906592","MEAN_MOTION":14.91425564,"ECCENTRICITY":0.0002457,"INCLINATION":97.7579,"RA_OF_ASC_NODE":76.8507,"ARG_OF_PERICENTER":144.6786,"MEAN_ANOMALY":215.4596,"EPHEMERIS_TYPE":0,"CLASSIFICATION_TYPE":"U","NORAD_CAT_ID":68500,"ELEMENT_SET_NO":999,"REV_AT_EPOCH":421,"BSTAR":0.00027893,"MEAN_MOTION_DOT":2.732e-5,"MEAN_MOTION_DDOT":0},{"OBJECT_NAME":"TRANSPORTER-16 OBJECT CP","OBJECT_ID":"2026-067CP","EPOCH":"2026-04-27T19:36:52.541856","MEAN_MOTION":14.91269712,"ECCENTRICITY":0.0003237,"INCLINATION":97.7592,"RA_OF_ASC_NODE":76.8486,"ARG_OF_PERICENTER":165.6486,"MEAN_ANOMALY":194.4825,"EPHEMERIS_TYPE":0,"CLASSIFICATION_TYPE":"U","NORAD_CAT_ID":68501,"ELEMENT_SET_NO":999,"REV_AT_EPOCH":421,"BSTAR":0.00025825,"MEAN_MOTION_DOT":2.515e-5,"MEAN_MOTION_DDOT":0},{"OBJECT_NAME":"ICEYE-X76","OBJECT_ID":"2026-067CQ","EPOCH":"2026-04-27T19:29:14.832672","MEAN_MOTION":14.91534888,"ECCENTRICITY":0.0002562,"INCLINATION":97.7585,"RA_OF_ASC_NODE":76.8544,"ARG_OF_PERICENTER":137.8383,"MEAN_ANOMALY":222.3033,"EPHEMERIS_TYPE":0,"CLASSIFICATION_TYPE":"U","NORAD_CAT_ID":68502,"ELEMENT_SET_NO":999,"REV_AT_EPOCH":421,"BSTAR":0.00020838,"MEAN_MOTION_DOT":2.032e-5,"MEAN_MOTION_DDOT":0},{"OBJECT_NAME":"FLYLAB2","OBJECT_ID":"2026-067CR","EPOCH":"2026-04-27T19:51:26.357760","MEAN_MOTION":14.90560652,"ECCENTRICITY":0.0004026,"INCLINATION":97.7533,"RA_OF_ASC_NODE":76.8186,"ARG_OF_PERICENTER":213.7225,"MEAN_ANOMALY":146.3738,"EPHEMERIS_TYPE":0,"CLASSIFICATION_TYPE":"U","NORAD_CAT_ID":68503,"ELEMENT_SET_NO":999,"REV_AT_EPOCH":421,"BSTAR":0.00029694,"MEAN_MOTION_DOT":2.849e-5,"MEAN_MOTION_DDOT":0},{"OBJECT_NAME":"ICEYE-X72","OBJECT_ID":"2026-067CS","EPOCH":"2026-04-27T19:22:14.799072","MEAN_MOTION":14.91796777,"ECCENTRICITY":0.0003004,"INCLINATION":97.7586,"RA_OF_ASC_NODE":76.861,"ARG_OF_PERICENTER":117.5066,"MEAN_ANOMALY":242.6458,"EPHEMERIS_TYPE":0,"CLASSIFICATION_TYPE":"U","NORAD_CAT_ID":68504,"ELEMENT_SET_NO":999,"REV_AT_EPOCH":421,"BSTAR":0.00028928,"MEAN_MOTION_DOT":2.862e-5,"MEAN_MOTION_DDOT":0},{"OBJECT_NAME":"GEMS2-AMETHYST","OBJECT_ID":"2026-067CT","EPOCH":"2026-04-27T19:52:44.853888","MEAN_MOTION":14.90731952,"ECCENTRICITY":0.0004666,"INCLINATION":97.757,"RA_OF_ASC_NODE":76.8278,"ARG_OF_PERICENTER":193.2673,"MEAN_ANOMALY":166.8423,"EPHEMERIS_TYPE":0,"CLASSIFICATION_TYPE":"U","NORAD_CAT_ID":68505,"ELEMENT_SET_NO":999,"REV_AT_EPOCH":421,"BSTAR":0.00064943,"MEAN_MOTION_DOT":6.326e-5,"MEAN_MOTION_DDOT":0},{"OBJECT_NAME":"STARLINK-37262","OBJECT_ID":"2026-068A","EPOCH":"2026-04-27T14:23:32.551584","MEAN_MOTION":15.80993998,"ECCENTRICITY":0.0001229,"INCLINATION":53.1558,"RA_OF_ASC_NODE":264.2101,"ARG_OF_PERICENTER":72.5075,"MEAN_ANOMALY":287.6082,"EPHEMERIS_TYPE":0,"CLASSIFICATION_TYPE":"U","NORAD_CAT_ID":68508,"ELEMENT_SET_NO":999,"REV_AT_EPOCH":440,"BSTAR":0.0015242,"MEAN_MOTION_DOT":0.00313041,"MEAN_MOTION_DDOT":0},{"OBJECT_NAME":"STARLINK-36292","OBJECT_ID":"2026-068B","EPOCH":"2026-04-27T12:51:54.851328","MEAN_MOTION":15.78962514,"ECCENTRICITY":0.0001194,"INCLINATION":53.1567,"RA_OF_ASC_NODE":264.5234,"ARG_OF_PERICENTER":94.3103,"MEAN_ANOMALY":265.8055,"EPHEMERIS_TYPE":0,"CLASSIFICATION_TYPE":"U","NORAD_CAT_ID":68509,"ELEMENT_SET_NO":999,"REV_AT_EPOCH":439,"BSTAR":-0.0048585,"MEAN_MOTION_DOT":-0.00801665,"MEAN_MOTION_DDOT":0},{"OBJECT_NAME":"STARLINK-37260","OBJECT_ID":"2026-068C","EPOCH":"2026-04-24T18:04:45.722208","MEAN_MOTION":15.80902599,"ECCENTRICITY":0.00014196,"INCLINATION":53.156,"RA_OF_ASC_NODE":278.4587,"ARG_OF_PERICENTER":39.3761,"MEAN_ANOMALY":320.7365,"EPHEMERIS_TYPE":0,"CLASSIFICATION_TYPE":"U","NORAD_CAT_ID":68510,"ELEMENT_SET_NO":999,"REV_AT_EPOCH":395,"BSTAR":0.00054236854,"MEAN_MOTION_DOT":0.00107841,"MEAN_MOTION_DDOT":0},{"OBJECT_NAME":"STARLINK-37280","OBJECT_ID":"2026-068D","EPOCH":"2026-04-26T17:04:37.483680","MEAN_MOTION":15.85572065,"ECCENTRICITY":0.0027696,"INCLINATION":53.1556,"RA_OF_ASC_NODE":268.6272,"ARG_OF_PERICENTER":256.9348,"MEAN_ANOMALY":102.8584,"EPHEMERIS_TYPE":0,"CLASSIFICATION_TYPE":"U","NORAD_CAT_ID":68511,"ELEMENT_SET_NO":999,"REV_AT_EPOCH":426,"BSTAR":0.020319,"MEAN_MOTION_DOT":0.04348943,"MEAN_MOTION_DDOT":0.019878},{"OBJECT_NAME":"STARLINK-37286","OBJECT_ID":"2026-068E","EPOCH":"2026-04-27T00:00:02.000160","MEAN_MOTION":15.8084846,"ECCENTRICITY":6.794e-5,"INCLINATION":53.1567,"RA_OF_ASC_NODE":267.182,"ARG_OF_PERICENTER":34.7337,"MEAN_ANOMALY":167.7559,"EPHEMERIS_TYPE":0,"CLASSIFICATION_TYPE":"U","NORAD_CAT_ID":68512,"ELEMENT_SET_NO":999,"REV_AT_EPOCH":557,"BSTAR":2.11698e-7,"MEAN_MOTION_DOT":-6.56e-6,"MEAN_MOTION_DDOT":0}]
